start=new Date('2023-04-06T00:00:00.000Z').valueOf();
sats=[{"COUNTRY_CODE":"US","MEAN_MOTION":"15.69850479","TLE_LINE2":"2 55919  69.9988 127.2439 0003940 264.7893 168.4786 15.69850479  1301","CENTER_NAME":"EARTH","REV_AT_EPOCH":"130","ECCENTRICITY":"0.00039400","PERIAPSIS":"356.672","DECAY_DATE":null,"BSTAR":"0.00108720000000","OBJECT_ID":"2023-037F","CLASSIFICATION_TYPE":"U","GP_ID":"229574361","RCS_SIZE":"LARGE","REF_FRAME":"TEME","OBJECT_NAME":"STARLINK-5871","ELEMENT_SET_NO":"999","LAUNCH_DATE":"2023-03-17","EPOCH":"2023-04-05T22:00:00.999936","SEMIMAJOR_AXIS":"6737.462","MEAN_MOTION_DDOT":"0.0000000000000","FILE":"3881153","OBJECT_TYPE":"PAYLOAD","RA_OF_ASC_NODE":"127.2439","EPHEMERIS_TYPE":"0","SITE":"AFWTR","INCLINATION":"69.9988","PERIOD":"91.728","ARG_OF_PERICENTER":"264.7893","NORAD_CAT_ID":"55919","MEAN_ELEMENT_THEORY":"SGP4","MEAN_ANOMALY":"168.4786","TIME_SYSTEM":"UTC","MEAN_MOTION_DOT":"0.00132202","APOAPSIS":"361.981","TLE_LINE1":"1 55919U 23037F   23095.91667824  .00132202  00000-0  10872-2 0  9996"},{"PERIOD":"91.726","INCLINATION":"69.9984","ARG_OF_PERICENTER":"267.8777","NORAD_CAT_ID":"55920","MEAN_ELEMENT_THEORY":"SGP4","MEAN_ANOMALY":"281.5604","SITE":"AFWTR","OBJECT_TYPE":"PAYLOAD","RA_OF_ASC_NODE":"127.0036","EPHEMERIS_TYPE":"0","FILE":"3881142","MEAN_MOTION_DDOT":"0.0000000000000","TLE_LINE1":"1 55920U 23037G   23096.00001157  .00082544  00000-0  68253-3 0  9990","MEAN_MOTION_DOT":"0.00082544","APOAPSIS":"361.640","TIME_SYSTEM":"UTC","REV_AT_EPOCH":"354","ECCENTRICITY":"0.00035900","PERIAPSIS":"356.803","DECAY_DATE":null,"CENTER_NAME":"EARTH","MEAN_MOTION":"15.69887325","COUNTRY_CODE":"US","TLE_LINE2":"2 55920  69.9984 127.0036 0003590 267.8777 281.5604 15.69887325  3540","SEMIMAJOR_AXIS":"6737.356","GP_ID":"229547704","REF_FRAME":"TEME","RCS_SIZE":"LARGE","OBJECT_NAME":"STARLINK-5862","EPOCH":"2023-04-06T00:00:00.999648","LAUNCH_DATE":"2023-03-17","ELEMENT_SET_NO":"999","OBJECT_ID":"2023-037G","CLASSIFICATION_TYPE":"U","BSTAR":"0.00068253000000"},{"EPHEMERIS_TYPE":"0","RA_OF_ASC_NODE":"127.2435","OBJECT_TYPE":"PAYLOAD","MEAN_MOTION_DDOT":"0.0000000000000","FILE":"3881153","MEAN_ANOMALY":"166.3987","NORAD_CAT_ID":"55921","MEAN_ELEMENT_THEORY":"SGP4","ARG_OF_PERICENTER":"268.6480","INCLINATION":"69.9985","PERIOD":"91.728","SITE":"AFWTR","APOAPSIS":"361.643","MEAN_MOTION_DOT":"0.00116358","TIME_SYSTEM":"UTC","TLE_LINE1":"1 55921U 23037H   23095.91667824  .00116358  00000-0  95858-3 0  9991","TLE_LINE2":"2 55921  69.9985 127.2435 0003483 268.6480 166.3987 15.69861015  1302","COUNTRY_CODE":"US","MEAN_MOTION":"15.69861015","DECAY_DATE":null,"PERIAPSIS":"356.950","ECCENTRICITY":"0.00034830","REV_AT_EPOCH":"130","CENTER_NAME":"EARTH","CLASSIFICATION_TYPE":"U","OBJECT_ID":"2023-037H","BSTAR":"0.00095858000000","SEMIMAJOR_AXIS":"6737.432","LAUNCH_DATE":"2023-03-17","ELEMENT_SET_NO":"999","EPOCH":"2023-04-05T22:00:00.999936","OBJECT_NAME":"STARLINK-5861","REF_FRAME":"TEME","GP_ID":"229574308","RCS_SIZE":"LARGE"},{"EPOCH":"2023-04-05T22:00:00.999936","LAUNCH_DATE":"2023-03-17","ELEMENT_SET_NO":"999","GP_ID":"229574469","RCS_SIZE":"LARGE","REF_FRAME":"TEME","OBJECT_NAME":"STARLINK-5863","SEMIMAJOR_AXIS":"6737.465","BSTAR":"0.00113840000000","CLASSIFICATION_TYPE":"U","OBJECT_ID":"2023-037J","CENTER_NAME":"EARTH","PERIAPSIS":"356.971","DECAY_DATE":null,"REV_AT_EPOCH":"130","ECCENTRICITY":"0.00035010","TLE_LINE2":"2 55922  69.9992 127.2424 0003501 264.9559 169.4959 15.69849341  1307","MEAN_MOTION":"15.69849341","COUNTRY_CODE":"US","TLE_LINE1":"1 55922U 23037J   23095.91667824  .00138526  00000-0  11384-2 0  9994","TIME_SYSTEM":"UTC","MEAN_MOTION_DOT":"0.00138526","APOAPSIS":"361.689","SITE":"AFWTR","NORAD_CAT_ID":"55922","MEAN_ELEMENT_THEORY":"SGP4","MEAN_ANOMALY":"169.4959","INCLINATION":"69.9992","PERIOD":"91.729","ARG_OF_PERICENTER":"264.9559","FILE":"3881153","MEAN_MOTION_DDOT":"0.0000000000000","RA_OF_ASC_NODE":"127.2424","EPHEMERIS_TYPE":"0","OBJECT_TYPE":"PAYLOAD"},{"SITE":"AFWTR","MEAN_ELEMENT_THEORY":"SGP4","NORAD_CAT_ID":"55923","MEAN_ANOMALY":"166.2224","PERIOD":"91.729","INCLINATION":"69.9991","ARG_OF_PERICENTER":"267.6442","MEAN_MOTION_DDOT":"0.0000000000000","FILE":"3881153","RA_OF_ASC_NODE":"127.2446","EPHEMERIS_TYPE":"0","OBJECT_TYPE":"PAYLOAD","TLE_LINE1":"1 55923U 23037K   23095.91667824  .00126845  00000-0  10440-2 0  9998","TIME_SYSTEM":"UTC","MEAN_MOTION_DOT":"0.00126845","APOAPSIS":"361.846","CENTER_NAME":"EARTH","PERIAPSIS":"356.818","DECAY_DATE":null,"REV_AT_EPOCH":"130","ECCENTRICITY":"0.00037310","TLE_LINE2":"2 55923  69.9991 127.2446 0003731 267.6442 166.2224 15.69848634  1301","MEAN_MOTION":"15.69848634","COUNTRY_CODE":"US","ELEMENT_SET_NO":"999","LAUNCH_DATE":"2023-03-17","EPOCH":"2023-04-05T22:00:00.999936","GP_ID":"229574505","REF_FRAME":"TEME","RCS_SIZE":"LARGE","OBJECT_NAME":"STARLINK-5854","SEMIMAJOR_AXIS":"6737.467","BSTAR":"0.00104400000000","CLASSIFICATION_TYPE":"U","OBJECT_ID":"2023-037K"},{"SEMIMAJOR_AXIS":"6737.351","LAUNCH_DATE":"2023-03-17","EPOCH":"2023-04-05T22:00:00.999936","ELEMENT_SET_NO":"999","GP_ID":"229574416","RCS_SIZE":"LARGE","REF_FRAME":"TEME","OBJECT_NAME":"STARLINK-5849","CLASSIFICATION_TYPE":"U","OBJECT_ID":"2023-037L","BSTAR":"0.00043817000000","PERIAPSIS":"356.817","DECAY_DATE":null,"REV_AT_EPOCH":"130","ECCENTRICITY":"0.00035610","CENTER_NAME":"EARTH","TLE_LINE2":"2 55924  69.9985 127.2344 0003561 267.2381 173.7693 15.69889232  1303","COUNTRY_CODE":"US","MEAN_MOTION":"15.69889232","TLE_LINE1":"1 55924U 23037L   23095.91667824  .00052731  00000-0  43817-3 0  9996","MEAN_MOTION_DOT":"0.00052731","APOAPSIS":"361.615","TIME_SYSTEM":"UTC","MEAN_ELEMENT_THEORY":"SGP4","NORAD_CAT_ID":"55924","MEAN_ANOMALY":"173.7693","INCLINATION":"69.9985","PERIOD":"91.726","ARG_OF_PERICENTER":"267.2381","SITE":"AFWTR","RA_OF_ASC_NODE":"127.2344","EPHEMERIS_TYPE":"0","OBJECT_TYPE":"PAYLOAD","MEAN_MOTION_DDOT":"0.0000000000000","FILE":"3881153"},{"REV_AT_EPOCH":"130","ECCENTRICITY":"0.00034430","PERIAPSIS":"357.013","DECAY_DATE":null,"CENTER_NAME":"EARTH","COUNTRY_CODE":"US","MEAN_MOTION":"15.69848253","TLE_LINE2":"2 55925  69.9984 127.2420 0003443 267.4021 168.2417 15.69848253  1301","SEMIMAJOR_AXIS":"6737.468","GP_ID":"229574452","REF_FRAME":"TEME","RCS_SIZE":"LARGE","OBJECT_NAME":"STARLINK-5922","EPOCH":"2023-04-05T22:00:00.999936","LAUNCH_DATE":"2023-03-17","ELEMENT_SET_NO":"999","OBJECT_ID":"2023-037M","CLASSIFICATION_TYPE":"U","BSTAR":"0.00112570000000","INCLINATION":"69.9984","PERIOD":"91.729","ARG_OF_PERICENTER":"267.4021","NORAD_CAT_ID":"55925","MEAN_ELEMENT_THEORY":"SGP4","MEAN_ANOMALY":"168.2417","SITE":"AFWTR","OBJECT_TYPE":"PAYLOAD","RA_OF_ASC_NODE":"127.2420","EPHEMERIS_TYPE":"0","MEAN_MOTION_DDOT":"0.0000000000000","FILE":"3881153","TLE_LINE1":"1 55925U 23037M   23095.91667824  .00136945  00000-0  11257-2 0  9999","MEAN_MOTION_DOT":"0.00136945","APOAPSIS":"361.653","TIME_SYSTEM":"UTC"},{"DECAY_DATE":null,"PERIAPSIS":"357.164","ECCENTRICITY":"0.00032270","REV_AT_EPOCH":"130","CENTER_NAME":"EARTH","TLE_LINE2":"2 55926  69.9983 127.2357 0003227 267.6036 172.8073 15.69846409  1308","COUNTRY_CODE":"US","MEAN_MOTION":"15.69846409","SEMIMAJOR_AXIS":"6737.473","LAUNCH_DATE":"2023-03-17","ELEMENT_SET_NO":"999","EPOCH":"2023-04-05T22:00:00.999936","OBJECT_NAME":"STARLINK-5921","GP_ID":"229574326","REF_FRAME":"TEME","RCS_SIZE":"LARGE","CLASSIFICATION_TYPE":"U","OBJECT_ID":"2023-037N","BSTAR":"0.00112880000000","MEAN_ANOMALY":"172.8073","MEAN_ELEMENT_THEORY":"SGP4","NORAD_CAT_ID":"55926","ARG_OF_PERICENTER":"267.6036","PERIOD":"91.729","INCLINATION":"69.9983","SITE":"AFWTR","EPHEMERIS_TYPE":"0","RA_OF_ASC_NODE":"127.2357","OBJECT_TYPE":"PAYLOAD","MEAN_MOTION_DDOT":"0.0000000000000","FILE":"3881153","TLE_LINE1":"1 55926U 23037N   23095.91667824  .00137314  00000-0  11288-2 0  9995","APOAPSIS":"361.513","MEAN_MOTION_DOT":"0.00137314","TIME_SYSTEM":"UTC"},{"ELEMENT_SET_NO":"999","LAUNCH_DATE":"2023-03-17","EPOCH":"2023-04-05T22:00:00.999936","OBJECT_NAME":"STARLINK-5919","REF_FRAME":"TEME","GP_ID":"229574362","RCS_SIZE":"LARGE","SEMIMAJOR_AXIS":"6737.419","BSTAR":"0.00089900000000","CLASSIFICATION_TYPE":"U","OBJECT_ID":"2023-037P","CENTER_NAME":"EARTH","DECAY_DATE":null,"PERIAPSIS":"356.866","ECCENTRICITY":"0.00035880","REV_AT_EPOCH":"130","TLE_LINE2":"2 55927  69.9984 127.2408 0003588 270.6794 165.5544 15.69865500  1307","COUNTRY_CODE":"US","MEAN_MOTION":"15.69865500","TLE_LINE1":"1 55927U 23037P   23095.91667824  .00109039  00000-0  89900-3 0  9996","TIME_SYSTEM":"UTC","APOAPSIS":"361.701","MEAN_MOTION_DOT":"0.00109039","SITE":"AFWTR","MEAN_ANOMALY":"165.5544","MEAN_ELEMENT_THEORY":"SGP4","NORAD_CAT_ID":"55927","ARG_OF_PERICENTER":"270.6794","INCLINATION":"69.9984","PERIOD":"91.728","FILE":"3881153","MEAN_MOTION_DDOT":"0.0000000000000","EPHEMERIS_TYPE":"0","RA_OF_ASC_NODE":"127.2408","OBJECT_TYPE":"PAYLOAD"},{"MEAN_MOTION_DOT":"0.00140283","APOAPSIS":"361.765","TIME_SYSTEM":"UTC","TLE_LINE1":"1 55928U 23037Q   23095.91667824  .00140283  00000-0  11526-2 0  9991","OBJECT_TYPE":"PAYLOAD","RA_OF_ASC_NODE":"127.2379","EPHEMERIS_TYPE":"0","FILE":"3881153","MEAN_MOTION_DDOT":"0.0000000000000","PERIOD":"91.729","INCLINATION":"69.9977","ARG_OF_PERICENTER":"265.4420","NORAD_CAT_ID":"55928","MEAN_ELEMENT_THEORY":"SGP4","MEAN_ANOMALY":"171.9903","SITE":"AFWTR","OBJECT_ID":"2023-037Q","CLASSIFICATION_TYPE":"U","BSTAR":"0.00115260000000","SEMIMAJOR_AXIS":"6737.468","GP_ID":"229574561","RCS_SIZE":"LARGE","REF_FRAME":"TEME","OBJECT_NAME":"STARLINK-5930","LAUNCH_DATE":"2023-03-17","ELEMENT_SET_NO":"999","EPOCH":"2023-04-05T22:00:00.999936","MEAN_MOTION":"15.69848262","COUNTRY_CODE":"US","TLE_LINE2":"2 55928  69.9977 127.2379 0003610 265.4420 171.9903 15.69848262  1307","REV_AT_EPOCH":"130","ECCENTRICITY":"0.00036100","PERIAPSIS":"356.901","DECAY_DATE":null,"CENTER_NAME":"EARTH"}];
